{
  "norad_id": 46479,
  "name": "HJ-2B",
  "history": [
    {
      "epoch": "2026-03-28T21:33:04.925088Z",
      "apogee_km": 641.5825936600386,
      "perigee_km": 639.1575590950079,
      "latitude_deg": 7.55579552584215e-05,
      "longitude_deg": 19.536949221728126,
      "height_km": 643.2838759260709,
      "semi_major_axis_km": 7018.507076377523,
      "eccentricity": 0.00017276,
      "inclination_deg": 97.8911,
      "raan_deg": 169.1193,
      "arg_perigee_deg": 85.2504,
      "mean_anomaly_deg": 274.8904,
      "mean_motion_rev_day": 14.76507471
    },
    {
      "epoch": "2026-03-29T05:41:00.858336Z",
      "apogee_km": 641.5621015758152,
      "perigee_km": 639.1715991643796,
      "latitude_deg": 4.725849554600865e-05,
      "longitude_deg": -102.44877973430756,
      "height_km": 643.289031536289,
      "semi_major_axis_km": 7018.503850370097,
      "eccentricity": 0.0001703,
      "inclination_deg": 97.8911,
      "raan_deg": 169.4506,
      "arg_perigee_deg": 85.5824,
      "mean_anomaly_deg": 274.5581,
      "mean_motion_rev_day": 14.76508489
    },
    {
      "epoch": "2026-03-30T04:27:13.355136Z",
      "apogee_km": 641.5341437869683,
      "perigee_km": 639.1689131528747,
      "latitude_deg": 4.496129002031416e-05,
      "longitude_deg": -84.00898515425628,
      "height_km": 643.280834081308,
      "semi_major_axis_km": 7018.488528469921,
      "eccentricity": 0.0001685,
      "inclination_deg": 97.8909,
      "raan_deg": 170.3776,
      "arg_perigee_deg": 85.8791,
      "mean_anomaly_deg": 274.2612,
      "mean_motion_rev_day": 14.76513324
    },
    {
      "epoch": "2026-03-30T06:04:48.531072Z",
      "apogee_km": 641.5294912235986,
      "perigee_km": 639.17296361636,
      "latitude_deg": 2.344305749831966e-05,
      "longitude_deg": -108.40614393499709,
      "height_km": 643.2747852931465,
      "semi_major_axis_km": 7018.488227419979,
      "eccentricity": 0.00016788,
      "inclination_deg": 97.8909,
      "raan_deg": 170.4438,
      "arg_perigee_deg": 85.5829,
      "mean_anomaly_deg": 274.5573,
      "mean_motion_rev_day": 14.76513419
    },
    {
      "epoch": "2026-03-30T14:12:44.365824Z",
      "apogee_km": 641.550299367188,
      "perigee_km": 639.1370649694309,
      "latitude_deg": 5.534665938293725e-06,
      "longitude_deg": 129.6086375111241,
      "height_km": 643.2356785118385,
      "semi_major_axis_km": 7018.480682168309,
      "eccentricity": 0.00017192,
      "inclination_deg": 97.8911,
      "raan_deg": 170.7752,
      "arg_perigee_deg": 84.1856,
      "mean_anomaly_deg": 275.955,
      "mean_motion_rev_day": 14.765158
    },
    {
      "epoch": "2026-03-30T22:20:40.263648Z",
      "apogee_km": 641.5419007211367,
      "perigee_km": 639.1460720516234,
      "latitude_deg": -6.732385650941774e-05,
      "longitude_deg": 7.62286301283324,
      "height_km": 643.2457625151525,
      "semi_major_axis_km": 7018.480986386379,
      "eccentricity": 0.00017068,
      "inclination_deg": 97.8911,
      "raan_deg": 171.1063,
      "arg_perigee_deg": 84.6117,
      "mean_anomaly_deg": 275.5287,
      "mean_motion_rev_day": 14.76515704
    }
  ]
}